LEMUR-2-ROUNDTRIPPER    
1 62711U 25009DG  26200.22719736  .00003869  00000+0  28246-3 0  9990
2 62711  97.7242 282.8692 0004447  57.3239 302.8415 15.04266209 82441
LEMUR-2-MYNAMEISJEFF    
1 62712U 25009DH  26200.22570929  .00003940  00000+0  28767-3 0  9998
2 62712  97.7290 283.2680 0004354  89.2451 270.9274 15.04257529 82447
LEMUR-2-LEIA-PHILIP     
1 63246U 25052AN  26200.21292455  .00000052  00000+0  93802-5 0  9998
2 63246  97.6794  91.6202 0005044 111.1150 249.0611 14.97392781 73462
LEMUR-2-LIA-MARTIN      
1 63248U 25052AQ  26200.20574828  .00001232  00000+0  10911-3 0  9995
2 63248  97.6854  92.1388 0005051  80.1011 280.0781 14.98043420 73479
LEMUR-2-DELOITTE-1      
1 63259U 25052BB  26200.25366864  .00002369  00000+0  20660-3 0  9995
2 63259  97.6885  92.5158 0002540  59.0994 301.0478 14.97801761 73497
LEMUR-2-EMERSONROSE     
1 63261U 25052BD  26200.19702698  .00002223  00000+0  18682-3 0  9990
2 63261  97.6884  93.0826 0002472  51.1430 309.0014 14.99310093 73533
LEMUR-2-MARACHE-FRAN    
1 63262U 25052BE  26200.21701608  .00001563  00000+0  12932-3 0  9992
2 63262  97.6818  93.4730 0005683 236.5644 123.5037 15.00329187 73566
LEMUR-2-THEFALCONER     
1 63264U 25052BG  26200.21791489  .00001113  00000+0  10029-3 0  9996
2 63264  97.6817  92.0667 0000591 231.4008 128.7162 14.97572260 73486
LEMUR-2-UNTITLED-SC     
1 63351U 25061A   26199.88793217  .00001770  00000+0  10174-3 0  9994
2 63351  97.5660 175.0260 0019552 150.7612 209.4718 15.13659594 72387
LEMUR-2-ESPERANZA       
1 63352U 25061B   26199.86300779  .00001715  00000+0  98409-4 0  9997
2 63352  97.5666 175.1024 0019168 150.1624 210.0705 15.13765530 72385
LEMUR-2-KREMPEL-BRO2    
1 63353U 25061C   26199.88094642  .00001858  00000+0  10498-3 0  9998
2 63353  97.5710 175.6939 0020287 143.0980 217.1652 15.14192896 72408
LEMUR-2-THERMORAPTOR    
1 63354U 25061D   26200.19170284  .00001833  00000+0  10339-3 0  9990
2 63354  97.5718 176.0849 0020049 141.0309 219.2372 15.14276853 72454
LEMUR-2-NEUROSPICY      
1 63355U 25061E   26199.89660350  .00001843  00000+0  10373-3 0  9992
2 63355  97.5646 175.3929 0017805 144.7929 215.4483 15.14394723 72414
LEMUR-2-TILLINFINITY    
1 63356U 25061F   26200.18384588  .00001946  00000+0  10748-3 0  9994
2 63356  97.5631 175.9915 0019316 132.9139 227.3718 15.14980545 72484
LEMUR-2-KREMPEL-BRO1    
1 63357U 25061G   26199.89717339  .00001867  00000+0  10378-3 0  9995
2 63357  97.5632 175.6133 0019966 135.2144 225.0704 15.14786023 72438
LEMUR-2-LANGER2SPACE    
1 63358U 25061H   26200.19433302  .00001861  00000+0  10444-3 0  9995
2 63358  97.5637 175.7101 0017728 142.2075 218.0406 15.14480543 72467
LEMUR-2-BALTO           
1 63395U 25052BH  26200.20123759  .00002096  00000+0  17161-3 0  9994
2 63395  97.6919  93.4511 0004994 310.3136  49.7650 15.00382990 73564
LEMUR-2-KRISH           
1 64561U 25135AK  26200.23921362  .00001949  00000+0  17691-3 0  9995
2 64561  97.7765 314.9038 0001111 103.9024 256.2321 14.96463590 58715
LEMUR-2-HUBBLE-4        
1 64565U 25135AP  26200.29454979  .00000405  00000+0  43625-4 0  9993
2 64565  97.7722 313.8301 0002986 152.5532 207.5846 14.93691716 58663
LEMUR-2-SEJONG-2        
1 64586U 25135BL  26200.25899670  .00002395  00000+0  21360-3 0  9994
2 64586  97.7709 315.0688 0004217 199.4650 160.6411 14.96930617 58748
LEMUR-2-HUBBLE-5        
1 64840U 25135BT  26200.23497417  .00000368  00000+0  39665-4 0  9994
2 64840  97.7742 314.4447 0004626 219.0014 141.0873 14.94218530 58691
LEMUR-2-KARENDARRELL    
1 64841U 25135BU  26200.06420529  .00003917  00000+0  31497-3 0  9993
2 64841  97.7722 316.2334 0012776  93.0297 267.2389 15.00530500 58799
LEMUR-2-LUCILLE-ROSE    
1 65403U 25135BV  26200.23775329  .00003185  00000+0  25696-3 0  9999
2 65403  97.7702 316.4414 0015319 177.0280 183.1037 15.00515555 53440
LEMUR-2-AFFIE-WAUWIE    
1 66295U 25248C   26200.29122538  .00012161  00000+0  44191-3 0  9993
2 66295  45.3911 300.8877 0009159 273.5136  86.4706 15.28363160 39500
OTTER SDM               
1 66678U 25276N   26200.17871295  .00003017  00000+0  14289-3 0  9992
2 66678  97.4197 273.1289 0004492 235.5851 124.4960 15.20082322 35270
LEMUR-2-STAS-GORBUK     
1 66686U 25276W   26200.20119204  .00002646  00000+0  12718-3 0  9992
2 66686  97.4230 273.2023 0003874 228.9240 131.1661 15.19680654 35278
LEMUR-2-TEODOR          
1 66768U 25276DG  26200.14977755  .00002870  00000+0  13118-3 0  9993
2 66768  97.4135 273.4286 0002167  84.8211 275.3272 15.21360535 35306
LEMUR-2-LAILA           
1 66776U 25276DQ  26200.11899128  .00002824  00000+0  12826-3 0  9990
2 66776  97.4158 273.5394 0002861  88.4325 271.7239 15.21586921 35300
LEMUR-2-CELIJO-SB-PK    
1 66781U 25276DW  26200.18659380  .00002932  00000+0  23839-3 0  9993
2 66781  97.5185 269.9077 0006765  54.7906 305.3951 15.00308705 27420
