OBJECT_NAME,OBJECT_ID,EPOCH,MEAN_MOTION,ECCENTRICITY,INCLINATION,RA_OF_ASC_NODE,ARG_OF_PERICENTER,MEAN_ANOMALY,EPHEMERIS_TYPE,CLASSIFICATION_TYPE,NORAD_CAT_ID,ELEMENT_SET_NO,REV_AT_EPOCH,BSTAR,MEAN_MOTION_DOT,MEAN_MOTION_DDOT
LEMUR-2-ROUNDTRIPPER,2025-009DG,2026-07-19T05:27:09.851904,15.04266209,.00044474,97.7242,282.8692,57.3239,302.8415,0,U,62711,999,8244,.28245988E-3,.3869E-4,0
LEMUR-2-MYNAMEISJEFF,2025-009DH,2026-07-19T05:25:01.282656,15.04257529,.00043542,97.7290,283.2680,89.2451,270.9274,0,U,62712,999,8244,.28766768E-3,.394E-4,0
LEMUR-2-LEIA-PHILIP,2025-052AN,2026-07-19T05:06:36.681120,14.97392781,.00050444,97.6794,91.6202,111.1150,249.0611,0,U,63246,999,7346,.9380183E-5,.52E-6,0
LEMUR-2-LIA-MARTIN,2025-052AQ,2026-07-19T04:56:16.651392,14.98043420,.00050513,97.6854,92.1388,80.1011,280.0781,0,U,63248,999,7347,.10911392E-3,.1232E-4,0
LEMUR-2-DELOITTE-1,2025-052BB,2026-07-19T06:05:16.970496,14.97801761,.00025409,97.6885,92.5158,59.0994,301.0478,0,U,63259,999,7349,.20660167E-3,.2369E-4,0
LEMUR-2-EMERSONROSE,2025-052BD,2026-07-19T04:43:43.131072,14.99310093,.00024725,97.6884,93.0826,51.1430,309.0014,0,U,63261,999,7353,.18682225E-3,.2223E-4,0
LEMUR-2-MARACHE-FRAN,2025-052BE,2026-07-19T05:12:30.189312,15.00329187,.00056834,97.6818,93.4730,236.5644,123.5037,0,U,63262,999,7356,.1293173E-3,.1563E-4,0
LEMUR-2-THEFALCONER,2025-052BG,2026-07-19T05:13:47.846496,14.97572260,.00005917,97.6817,92.0667,231.4008,128.7162,0,U,63264,999,7348,.10029059E-3,.1113E-4,0
LEMUR-2-UNTITLED-SC,2025-061A,2026-07-18T21:18:37.339488,15.13659594,.00195527,97.5660,175.0260,150.7612,209.4718,0,U,63351,999,7238,.10174143E-3,.177E-4,0
LEMUR-2-ESPERANZA,2025-061B,2026-07-18T20:42:43.873056,15.13765530,.00191681,97.5666,175.1024,150.1624,210.0705,0,U,63352,999,7238,.98408965E-4,.1715E-4,0
LEMUR-2-KREMPEL-BRO2,2025-061C,2026-07-18T21:08:33.770688,15.14192896,.00202872,97.5710,175.6939,143.0980,217.1652,0,U,63353,999,7240,.10498386E-3,.1858E-4,0
LEMUR-2-THERMORAPTOR,2025-061D,2026-07-19T04:36:03.125376,15.14276853,.00200495,97.5718,176.0849,141.0309,219.2372,0,U,63354,999,7245,.10339042E-3,.1833E-4,0
LEMUR-2-NEUROSPICY,2025-061E,2026-07-18T21:31:06.542400,15.14394723,.00178055,97.5646,175.3929,144.7929,215.4483,0,U,63355,999,7241,.10372902E-3,.1843E-4,0
LEMUR-2-TILLINFINITY,2025-061F,2026-07-19T04:24:44.284032,15.14980545,.00193162,97.5631,175.9915,132.9139,227.3718,0,U,63356,999,7248,.10747658E-3,.1946E-4,0
LEMUR-2-KREMPEL-BRO1,2025-061G,2026-07-18T21:31:55.780896,15.14786023,.00199668,97.5632,175.6133,135.2144,225.0704,0,U,63357,999,7243,.10378295E-3,.1867E-4,0
LEMUR-2-LANGER2SPACE,2025-061H,2026-07-19T04:39:50.372928,15.14480543,.00177285,97.5637,175.7101,142.2075,218.0406,0,U,63358,999,7246,.1044428E-3,.1861E-4,0
LEMUR-2-BALTO,2025-052BH,2026-07-19T04:49:46.927776,15.00382990,.00049941,97.6919,93.4511,310.3136,49.7650,0,U,63395,999,7356,.17160641E-3,.2096E-4,0
LEMUR-2-KRISH,2025-135AK,2026-07-19T05:44:28.056768,14.96463590,.00011112,97.7765,314.9038,103.9024,256.2321,0,U,64561,999,5871,.17691063E-3,.1949E-4,0
LEMUR-2-HUBBLE-4,2025-135AP,2026-07-19T07:04:09.101856,14.93691716,.00029862,97.7722,313.8301,152.5532,207.5846,0,U,64565,999,5866,.4362507E-4,.405E-5,0
LEMUR-2-SEJONG-2,2025-135BL,2026-07-19T06:12:57.314880,14.96930617,.00042174,97.7709,315.0688,199.4650,160.6411,0,U,64586,999,5874,.21359654E-3,.2395E-4,0
LEMUR-2-HUBBLE-5,2025-135BT,2026-07-19T05:38:21.768288,14.94218530,.00046264,97.7742,314.4447,219.0014,141.0873,0,U,64840,999,5869,.39664541E-4,.368E-5,0
LEMUR-2-KARENDARRELL,2025-135BU,2026-07-19T01:32:27.337056,15.00530500,.00127768,97.7722,316.2334,93.0297,267.2389,0,U,64841,999,5879,.31496575E-3,.3917E-4,0
LEMUR-2-LUCILLE-ROSE,2025-135BV,2026-07-19T05:42:21.884256,15.00515555,.00153193,97.7702,316.4414,177.0280,183.1037,0,U,65403,999,5344,.25696245E-3,.3185E-4,0
LEMUR-2-AFFIE-WAUWIE,2025-248C,2026-07-19T06:59:21.872832,15.28363160,.00091591,45.3911,300.8877,273.5136,86.4706,0,U,66295,999,3950,.44190814E-3,.12161E-3,0
OTTER SDM,2025-276N,2026-07-19T04:17:20.798880,15.20082322,.00044924,97.4197,273.1289,235.5851,124.4960,0,U,66678,999,3527,.14288691E-3,.3017E-4,0
LEMUR-2-STAS-GORBUK,2025-276W,2026-07-19T04:49:42.992256,15.19680654,.00038747,97.4230,273.2023,228.9240,131.1661,0,U,66686,999,3527,.12718125E-3,.2646E-4,0
LEMUR-2-TEODOR,2025-276DG,2026-07-19T03:35:40.780320,15.21360535,.00021679,97.4135,273.4286,84.8211,275.3272,0,U,66768,999,3530,.13118075E-3,.287E-4,0
LEMUR-2-LAILA,2025-276DQ,2026-07-19T02:51:20.846592,15.21586921,.00028617,97.4158,273.5394,88.4325,271.7239,0,U,66776,999,3530,.12826207E-3,.2824E-4,0
LEMUR-2-CELIJO-SB-PK,2025-276DW,2026-07-19T04:28:41.704320,15.00308705,.00067658,97.5185,269.9077,54.7906,305.3951,0,U,66781,999,2742,.23838815E-3,.2932E-4,0
